OBJECT_NAME,OBJECT_ID,EPOCH,MEAN_MOTION,ECCENTRICITY,INCLINATION,RA_OF_ASC_NODE,ARG_OF_PERICENTER,MEAN_ANOMALY,EPHEMERIS_TYPE,CLASSIFICATION_TYPE,NORAD_CAT_ID,ELEMENT_SET_NO,REV_AT_EPOCH,BSTAR,MEAN_MOTION_DOT,MEAN_MOTION_DDOT
IRIDIUM 113,2017-039A,2026-06-08T04:05:27.204000,14.34217849,.0002311,86.3964,325.9490,90.0902,270.0558,0,U,42803,999,46989,.43635E-4,.142E-5,0
NORSAT 2,2017-042D,2026-06-08T00:28:17.130144,15.21750920,.0010871,97.4043,332.6077,85.5789,274.6689,0,U,42828,999,48634,.50044E-3,.113E-3,0
TECHNOSAT,2017-042E,2026-06-08T00:10:15.471264,15.04900003,.0018875,97.4268,317.0161,123.1352,237.1690,0,U,42829,999,48532,.23457E-3,.3273E-4,0
FLYING LAPTOP,2017-042G,2026-06-08T04:28:38.983584,15.01085919,.0019124,97.4657,315.0688,151.1196,209.1091,0,U,42831,999,48510,.25162E-3,.3173E-4,0
WNISAT 1R,2017-042L,2026-06-08T03:55:12.657216,15.01723469,.0010059,97.4833,315.6090,178.7752,181.3500,0,U,42835,999,48515,.19514E-3,.2483E-4,0
LEMUR-2-GREENBERG,2017-042N,2026-06-08T01:38:48.134688,15.31050242,.0009405,97.3822,339.7378,45.2806,314.9199,0,U,42837,999,48699,.60391E-3,.18086E-3,0
LEMUR-2-FURIAUS,2017-042R,2026-06-07T11:12:54.347616,15.29931512,.0008535,97.3773,337.1173,98.8266,261.3941,0,U,42840,999,48672,.6248E-3,.18073E-3,0
CORVUS BC2,2017-042X,2026-06-08T00:39:21.713760,15.06239540,.0014202,97.4062,320.7350,138.2076,222.0239,0,U,42846,999,48568,.23448E-3,.3387E-4,0
CORVUS BC1,2017-042Y,2026-06-08T00:33:05.508288,15.06406941,.001333,97.4086,321.5388,117.0197,243.2393,0,U,42847,999,48571,.22909E-3,.3322E-4,0
VRSS-2,2017-060A,2026-06-08T04:51:19.115712,14.81180780,.0018248,97.6514,197.3340,125.8809,234.4101,0,U,42954,999,46712,.17136E-3,.1287E-4,0
MOHAMMED VI-A,2017-070A,2026-06-08T04:49:35.026176,14.77057736,.0001549,97.9554,231.6560,71.8776,288.2603,0,U,43005,999,46265,.75887E-4,.485E-5,0
FENGYUN 3D,2017-072A,2026-06-08T04:43:45.670368,14.19737916,.0002632,99.0127,133.4574,76.0491,284.0977,0,U,43010,999,44371,.10812E-3,.183E-5,0
NOAA 20 (JPSS-1),2017-073A,2026-06-08T02:52:51.959712,14.19510112,.0000476,98.7770,98.6634,40.4301,319.6910,0,U,43013,999,44318,.49736E-4,.61E-6,0
MAKERSAT 0,2017-073D,2026-06-07T15:26:30.137568,15.31756990,.0106135,97.4640,41.0894,307.5668,51.5969,0,U,43016,999,46500,.58054E-3,.21201E-3,0
RADFXSAT (FOX-1B),2017-073E,2026-06-07T21:08:22.858368,15.12564477,.0150955,97.4721,26.2863,1.5297,358.6365,0,U,43017,999,46398,.41497E-3,.9506E-4,0
JILIN-1 04,2017-074A,2026-06-08T03:11:22.572960,15.42216086,.0003343,97.4846,268.5064,210.2729,149.8325,0,U,43022,999,47287,.32252E-3,.13767E-3,0
JILIN-1 05,2017-074B,2026-06-08T04:24:05.054976,15.33734620,.0003774,97.4852,265.2175,253.7859,106.2968,0,U,43023,999,47262,.23493E-3,.7584E-4,0
JILIN-1 06,2017-074C,2026-06-08T03:41:47.306400,15.33595992,.0005293,97.4779,262.2085,271.0440,89.0196,0,U,43024,999,47245,.15743E-3,.5033E-4,0
IRIDIUM 116,2017-083C,2026-06-08T00:07:59.121696,14.34217636,.0001852,86.3957,325.8411,93.5040,266.6367,0,U,43072,999,44285,.77682E-4,.237E-5,0
IRIDIUM 130,2017-083D,2026-06-08T04:23:43.094688,14.34218276,.0001951,86.3967,326.0415,88.1759,271.9660,0,U,43073,999,44282,.79904E-4,.244E-5,0
LKW-2,2017-084A,2026-06-08T04:15:57.932640,15.26223636,.00002,97.1196,199.3951,289.3077,70.8141,0,U,43080,999,47031,.2847E-3,.7302E-4,0
SUPERVIEW-1 03,2018-002A,2026-06-08T04:38:51.672768,15.38959323,.0046641,97.3128,244.0473,211.8886,147.9535,0,U,43099,999,46698,.45319E-3,.18081E-3,0
CARTOSAT-2F,2018-004A,2026-06-08T04:25:59.637792,15.19306449,.0000077,97.4784,218.9077,349.4337,10.6896,0,U,43111,999,46596,.23323E-3,.4855E-4,0
LKW-3,2018-006A,2026-06-08T04:32:22.452000,15.35068568,.0002739,97.6608,319.4138,2.5522,357.5734,0,U,43146,999,46733,.27352E-3,.9224E-4,0
ASNARO-2,2018-007A,2026-06-08T04:21:11.662272,15.22412998,.0001636,97.3978,166.2491,86.9623,273.1801,0,U,43152,999,46604,.45517E-3,.10457E-3,0
JILIN-1 07,2018-008E,2026-06-08T03:50:26.669760,15.34570971,.0010239,97.1778,179.3301,91.6465,268.5951,0,U,43159,999,46361,.23178E-3,.7699E-4,0
JILIN-1 08,2018-008F,2026-06-08T03:42:24.698592,15.33607635,.0008042,97.1810,178.6505,104.4400,255.7736,0,U,43160,999,46356,.18453E-3,.5924E-4,0
S-NET D,2018-014G,2026-06-07T16:43:59.382048,15.16583818,.0009706,97.5366,63.5470,58.8150,301.4033,0,U,43186,999,45732,.31213E-3,.6035E-4,0
S-NET B,2018-014H,2026-06-07T23:20:15.844704,15.16556524,.0010253,97.5372,63.8067,53.5740,306.6437,0,U,43187,999,45736,.2823E-3,.5447E-4,0
